[{"id":"25118","name":"ORBCOMM FM06","tle1":"1 25118U 97084G   26176.30879715  .00001209  00000+0  36450-3 0  9999","tle2":"2 25118  45.0149  13.6141 0000357   5.2045 174.7824 14.47581571495564"},{"id":"25159","name":"ORBCOMM FM04","tle1":"1 25159U 98007C   26176.26757919  .00000780  00000+0  31229-3 0  9998","tle2":"2 25159 107.9627 186.0501 0041562 310.8781  48.8762 14.35754744477752"},{"id":"25415","name":"ORBCOMM FM19","tle1":"1 25415U 98046C   26175.80623942  .00000526  00000+0  21239-3 0  9991","tle2":"2 25415  44.9919 207.3448 0004433 312.9990 217.9644 14.39505801457870"},{"id":"25416","name":"ORBCOMM FM20","tle1":"1 25416U 98046D   26175.37679535  .00000351  00000+0  16147-3 0  9991","tle2":"2 25416  44.9921 217.3882 0002477 273.8533  86.2032 14.38073278457821"},{"id":"25481","name":"ORBCOMM FM27","tle1":"1 25481U 98053G   26175.61526848  .00000718  00000+0  27540-3 0  9992","tle2":"2 25481  45.0061 300.0730 0001690 221.9387 138.1332 14.39153668451309"},{"id":"25982","name":"ORBCOMM FM32","tle1":"1 25982U 99065C   26175.93714606  .00000554  00000+0  23221-3 0  9998","tle2":"2 25982  45.0137 136.5551 0004262  80.4655 279.6675 14.37139190388207"},{"id":"40086","name":"ORBCOMM FM109","tle1":"1 40086U 14040A   26174.94704496  .00000327  00000+0  10537-3 0  9990","tle2":"2 40086  47.0037  59.5265 0001973 264.2080  95.8581 14.58851422635331"},{"id":"41182","name":"ORBCOMM FM110","tle1":"1 41182U 15081D   26175.84279752  .00000566  00000+0  15591-3 0  9996","tle2":"2 41182  47.0030 325.2449 0002554 122.0857 238.0278 14.58890386558743"},{"id":"41183","name":"ORBCOMM FM118","tle1":"1 41183U 15081E   26175.67161399  .00000319  00000+0  10370-3 0  9991","tle2":"2 41183  47.0055 326.3870 0002330  70.8338 289.2800 14.58884422558829"},{"id":"41184","name":"ORBCOMM FM112","tle1":"1 41184U 15081F   26175.88148155  .00000362  00000+0  11272-3 0  9990","tle2":"2 41184  46.9977 233.8630 0004057 248.5374 111.5080 14.58912487560079"},{"id":"41185","name":"ORBCOMM FM113","tle1":"1 41185U 15081G   26175.85835780  .00000236  00000+0  86127-4 0  9997","tle2":"2 41185  46.9996 234.3526 0002552 251.1934 108.8675 14.58864475560051"},{"id":"41187","name":"ORBCOMM FM108","tle1":"1 41187U 15081J   26175.95764863  .00000420  00000+0  12507-3 0  9998","tle2":"2 41187  47.0038 145.4578 0003137 251.0039 109.0507 14.58881881561212"},{"id":"41188","name":"ORBCOMM FM117","tle1":"1 41188U 15081K   26176.19715664  .00000265  00000+0  92277-4 0  9991","tle2":"2 41188  46.9999 142.9570 0003660 255.2052 104.8429 14.58870148561291"},{"id":"41189","name":"ORBCOMM FM116","tle1":"1 41189U 15081L   26175.42415645  .00000349  00000+0  10988-3 0  9994","tle2":"2 41189  47.0011 236.4033 0000611 140.7589 219.3341 14.58891022559991"}]